{
  "type": "FeatureCollection",
  "features": [
    {
      "type": "Feature",
      "properties": {
        "norad_id": 51444,
        "name": "CSG-2",
        "group": "resource",
        "lat": -58.720362100150645,
        "lon": -35.42907575669781,
        "alt_km": 630.5289524904947,
        "timestamp": "2025-12-02T06:27:52.678941+00:00",
        "meta_object_name": "CSG-2",
        "meta_object_id": "2022-008A",
        "meta_epoch": "2025-12-01T19:39:56.390688",
        "meta_mean_motion": 14.82169935,
        "meta_eccentricity": 0.0001453,
        "meta_inclination": 97.8807,
        "meta_ra_of_asc_node": 157.3069,
        "meta_arg_of_pericenter": 86.3406,
        "meta_mean_anomaly": 273.7973,
        "meta_ephemeris_type": 0,
        "meta_classification_type": "U",
        "meta_norad_cat_id": 51444,
        "meta_element_set_no": 999,
        "meta_rev_at_epoch": 20735,
        "meta_bstar": 7.4458e-05,
        "meta_mean_motion_dot": 5.41e-06,
        "meta_mean_motion_ddot": 0,
        "tle_line1": "1 51444U 22008A   25335.81940267  .00000541  00000+0  74458-4 0  9996",
        "tle_line2": "2 51444  97.8807 157.3069 0001453  86.3406 273.7973 14.82169935207353"
      },
      "geometry": {
        "type": "Point",
        "coordinates": [
          -35.42907575669781,
          -58.720362100150645
        ]
      }
    },
    {
      "type": "Feature",
      "properties": {
        "norad_id": 52912,
        "name": "GAOFEN-12 03",
        "group": "resource",
        "lat": -71.10408770116781,
        "lon": 20.09497898296879,
        "alt_km": 639.6221715323718,
        "timestamp": "2025-12-02T06:27:52.678951+00:00",
        "meta_object_name": "GAOFEN-12 03",
        "meta_object_id": "2022-069A",
        "meta_epoch": "2025-12-01T19:35:14.550432",
        "meta_mean_motion": 14.79564713,
        "meta_eccentricity": 0.0002332,
        "meta_inclination": 97.8486,
        "meta_ra_of_asc_node": 223.4172,
        "meta_arg_of_pericenter": 77.8667,
        "meta_mean_anomaly": 282.2806,
        "meta_ephemeris_type": 0,
        "meta_classification_type": "U",
        "meta_norad_cat_id": 52912,
        "meta_element_set_no": 999,
        "meta_rev_at_epoch": 18542,
        "meta_bstar": 0.00017885,
        "meta_mean_motion_dot": 1.288e-05,
        "meta_mean_motion_ddot": 0,
        "tle_line1": "1 52912U 22069A   25335.81614063  .00001288  00000+0  17885-3 0  9995",
        "tle_line2": "2 52912  97.8486 223.4172 0002332  77.8667 282.2806 14.79564713185420"
      },
      "geometry": {
        "type": "Point",
        "coordinates": [
          20.09497898296879,
          -71.10408770116781
        ]
      }
    },
    {
      "type": "Feature",
      "properties": {
        "norad_id": 54754,
        "name": "SWOT",
        "group": "resource",
        "lat": -26.281422373420035,
        "lon": -65.10705931440754,
        "alt_km": 898.8727924262066,
        "timestamp": "2025-12-02T06:27:52.678961+00:00",
        "meta_object_name": "SWOT",
        "meta_object_id": "2022-173A",
        "meta_epoch": "2025-12-01T18:35:19.676256",
        "meta_mean_motion": 14.00172029,
        "meta_eccentricity": 2.88e-05,
        "meta_inclination": 77.6098,
        "meta_ra_of_asc_node": 301.7927,
        "meta_arg_of_pericenter": 143.8452,
        "meta_mean_anomaly": 216.2719,
        "meta_ephemeris_type": 0,
        "meta_classification_type": "U",
        "meta_norad_cat_id": 54754,
        "meta_element_set_no": 999,
        "meta_rev_at_epoch": 15152,
        "meta_bstar": 2.4866e-05,
        "meta_mean_motion_dot": 3.4e-07,
        "meta_mean_motion_ddot": 0,
        "tle_line1": "1 54754U 22173A   25335.77453329  .00000034  00000+0  24866-4 0  9994",
        "tle_line2": "2 54754  77.6098 301.7927 0000288 143.8452 216.2719 14.00172029151526"
      },
      "geometry": {
        "type": "Point",
        "coordinates": [
          -65.10705931440754,
          -26.281422373420035
        ]
      }
    },
    {
      "type": "Feature",
      "properties": {
        "norad_id": 57654,
        "name": "GAOFEN-12 04",
        "group": "resource",
        "lat": 58.053498731732056,
        "lon": -120.69889635907364,
        "alt_km": 623.840898743546,
        "timestamp": "2025-12-02T06:27:52.678971+00:00",
        "meta_object_name": "GAOFEN-12 04",
        "meta_object_id": "2023-123A",
        "meta_epoch": "2025-12-01T20:27:40.451328",
        "meta_mean_motion": 14.79645409,
        "meta_eccentricity": 0.0001472,
        "meta_inclination": 97.9111,
        "meta_ra_of_asc_node": 251.7757,
        "meta_arg_of_pericenter": 71.6004,
        "meta_mean_anomaly": 288.5368,
        "meta_ephemeris_type": 0,
        "meta_classification_type": "U",
        "meta_norad_cat_id": 57654,
        "meta_element_set_no": 999,
        "meta_rev_at_epoch": 12344,
        "meta_bstar": 0.00022123,
        "meta_mean_motion_dot": 1.608e-05,
        "meta_mean_motion_ddot": 0,
        "tle_line1": "1 57654U 23123A   25335.85255152  .00001608  00000+0  22123-3 0  9996",
        "tle_line2": "2 57654  97.9111 251.7757 0001472  71.6004 288.5368 14.79645409123446"
      },
      "geometry": {
        "type": "Point",
        "coordinates": [
          -120.69889635907364,
          58.053498731732056
        ]
      }
    },
    {
      "type": "Feature",
      "properties": {
        "norad_id": 59065,
        "name": "PARS 1",
        "group": "resource",
        "lat": -44.14800248891792,
        "lon": -45.70630962650959,
        "alt_km": 458.29929923901364,
        "timestamp": "2025-12-02T06:27:52.678981+00:00",
        "meta_object_name": "PARS 1",
        "meta_object_id": "2024-039Q",
        "meta_epoch": "2025-12-01T21:18:18.851616",
        "meta_mean_motion": 15.40604803,
        "meta_eccentricity": 0.0012622,
        "meta_inclination": 97.4616,
        "meta_ra_of_asc_node": 306.5951,
        "meta_arg_of_pericenter": 104.0633,
        "meta_mean_anomaly": 256.2017,
        "meta_ephemeris_type": 0,
        "meta_classification_type": "U",
        "meta_norad_cat_id": 59065,
        "meta_element_set_no": 999,
        "meta_rev_at_epoch": 9821,
        "meta_bstar": 0.00030808,
        "meta_mean_motion_dot": 0.00012491,
        "meta_mean_motion_ddot": 0,
        "tle_line1": "1 59065U 24039Q   25335.88771819  .00012491  00000+0  30808-3 0  9998",
        "tle_line2": "2 59065  97.4616 306.5951 0012622 104.0633 256.2017 15.40604803 98213"
      },
      "geometry": {
        "type": "Point",
        "coordinates": [
          -45.70630962650959,
          -44.14800248891792
        ]
      }
    },
    {
      "type": "Feature",
      "properties": {
        "norad_id": 59371,
        "name": "RESURS-P 4",
        "group": "resource",
        "lat": 66.94050706256222,
        "lon": -94.59047249189983,
        "alt_km": 461.97463602793505,
        "timestamp": "2025-12-02T06:27:52.678990+00:00",
        "meta_object_name": "RESURS-P 4",
        "meta_object_id": "2024-061A",
        "meta_epoch": "2025-12-01T20:45:46.399104",
        "meta_mean_motion": 15.31947487,
        "meta_eccentricity": 0.0002292,
        "meta_inclination": 97.2524,
        "meta_ra_of_asc_node": 282.4203,
        "meta_arg_of_pericenter": 55.8234,
        "meta_mean_anomaly": 304.3225,
        "meta_ephemeris_type": 0,
        "meta_classification_type": "U",
        "meta_norad_cat_id": 59371,
        "meta_element_set_no": 999,
        "meta_rev_at_epoch": 9354,
        "meta_bstar": 0.00015324,
        "meta_mean_motion_dot": 4.65e-05,
        "meta_mean_motion_ddot": 0,
        "tle_line1": "1 59371U 24061A   25335.86512036  .00004650  00000+0  15324-3 0  9999",
        "tle_line2": "2 59371  97.2524 282.4203 0002292  55.8234 304.3225 15.31947487 93548"
      },
      "geometry": {
        "type": "Point",
        "coordinates": [
          -94.59047249189983,
          66.94050706256222
        ]
      }
    },
    {
      "type": "Feature",
      "properties": {
        "norad_id": 59625,
        "name": "LEGION 1",
        "group": "resource",
        "lat": 18.845774436128863,
        "lon": -126.41674573111945,
        "alt_km": 520.521767294742,
        "timestamp": "2025-12-02T06:27:52.679001+00:00",
        "meta_object_name": "LEGION 1",
        "meta_object_id": "2024-081A",
        "meta_epoch": "2025-12-01T18:40:15.312864",
        "meta_mean_motion": 15.16305226,
        "meta_eccentricity": 0.0004845,
        "meta_inclination": 97.523,
        "meta_ra_of_asc_node": 50.5108,
        "meta_arg_of_pericenter": 0.1205,
        "meta_mean_anomaly": 0.0028,
        "meta_ephemeris_type": 0,
        "meta_classification_type": "U",
        "meta_norad_cat_id": 59625,
        "meta_element_set_no": 999,
        "meta_rev_at_epoch": 8761,
        "meta_bstar": 0.00028212,
        "meta_mean_motion_dot": 5.4e-05,
        "meta_mean_motion_ddot": 0,
        "tle_line1": "1 59625U 24081A   25335.77795501  .00005400  00000+0  28212-3 0  9997",
        "tle_line2": "2 59625  97.5230  50.5108 0004845   0.1205   0.0028 15.16305226 87616"
      },
      "geometry": {
        "type": "Point",
        "coordinates": [
          -126.41674573111945,
          18.845774436128863
        ]
      }
    }
  ]
}